CTC2_L_00509001-01
1 10000U 22492RL  26075.70047454  .00000000  00000+0  00000-0 0  9990
2 10000  97.4000   0.0000 0000000   0.0000   0.0000 15.55740824    15
CTC2_L_00509002-01
1 10001U 26959BM  26075.70047454  .00000000  00000+0  00000-0 0  9993
2 10001  97.4000  12.0000 0000000   0.0000  48.0000 15.55740824    11
CTC2_L_00509003-01
1 10002U 23499SJ  26075.70047454  .00000000  00000+0  00000-0 0  9990
2 10002  97.4000  24.0000 0000000   0.0000  96.0000 15.55740824    18
CTC2_L_00509004-01
1 10003U 24187GB  26075.70047454  .00000000  00000+0  00000-0 0  9996
2 10003  97.4000  36.0000 0000000   0.0000 144.0000 15.55740824    16
CTC2_L_00509005-01
1 10004U 24569YI  26075.70047454  .00000000  00000+0  00000-0 0  9991
2 10004  97.4000  48.0000 0000000   0.0000 192.0000 15.55740824    13
CTC2_L_00509006-01
1 10005U 26047MM  26075.70047454  .00000000  00000+0  00000-0 0  9995
2 10005  97.4000  60.0000 0000000   0.0000 240.0000 15.55740824    12
CTC2_L_00509007-01
1 10006U 24878FF  26075.70047454  .00000000  00000+0  00000-0 0  9996
2 10006  97.4000  72.0000 0000000   0.0000 288.0000 15.55740824    18
CTC2_L_00509008-01
1 10007U 24058WQ  26075.70047454  .00000000  00000+0  00000-0 0  9997
2 10007  97.4000  84.0000 0000000   0.0000 336.0000 15.55740824    16
CTC2_L_00509009-01
1 10008U 26462PK  26075.70047454  .00000000  00000+0  00000-0 0  9999
2 10008  97.4000  96.0000 0000000   0.0000  24.0000 15.55740824    14
CTC2_L_00509010-01
1 10009U 22842DW  26075.70047454  .00000000  00000+0  00000-0 0  9998
2 10009  97.4000 108.0000 0000000   0.0000  72.0000 15.55740824    12
CTC2_L_00509011-01
1 10010U 26945OL  26075.70047454  .00000000  00000+0  00000-0 0  9998
2 10010  97.4000 120.0000 0000000   0.0000 120.0000 15.55740824    12
CTC2_L_00509012-01
1 10011U 25186UM  26075.70047454  .00000000  00000+0  00000-0 0  9995
2 10011  97.4000 132.0000 0000000   0.0000 168.0000 15.55740824    18
CTC2_L_00509013-01
1 10012U 22635ZP  26075.70047454  .00000000  00000+0  00000-0 0  9992
2 10012  97.4000 144.0000 0000000   0.0000 216.0000 15.55740824    16
CTC2_L_00509014-01
1 10013U 22549YC  26075.70047454  .00000000  00000+0  00000-0 0  9997
2 10013  97.4000 156.0000 0000000   0.0000 264.0000 15.55740824    13
CTC2_L_00509015-01
1 10014U 23404SW  26075.70047454  .00000000  00000+0  00000-0 0  9999
2 10014  97.4000 168.0000 0000000   0.0000 312.0000 15.55740824    11
CTC2_L_00509016-01
1 10015U 26530NM  26075.70047454  .00000000  00000+0  00000-0 0  9993
2 10015  97.4000 180.0000 0000000   0.0000   0.0000 15.55740824    10
CTC2_L_00509017-01
1 10016U 24360RS  26075.70047454  .00000000  00000+0  00000-0 0  9993
2 10016  97.4000 192.0000 0000000   0.0000  48.0000 15.55740824    16
CTC2_L_00509018-01
1 10017U 24661CL  26075.70047454  .00000000  00000+0  00000-0 0  9998
2 10017  97.4000 204.0000 0000000   0.0000  96.0000 15.55740824    14
CTC2_L_00509019-01
1 10018U 25870VE  26075.70047454  .00000000  00000+0  00000-0 0  9992
2 10018  97.4000 216.0000 0000000   0.0000 144.0000 15.55740824    12
CTC2_L_00509020-01
1 10019U 26774JW  26075.70047454  .00000000  00000+0  00000-0 0  9997
2 10019  97.4000 228.0000 0000000   0.0000 192.0000 15.55740824    19
CTC2_L_00509021-01
1 10020U 25120TQ  26075.70047454  .00000000  00000+0  00000-0 0  9993
2 10020  97.4000 240.0000 0000000   0.0000 240.0000 15.55740824    19
CTC2_L_00509022-01
1 10021U 24880QO  26075.70047454  .00000000  00000+0  00000-0 0  9996
2 10021  97.4000 252.0000 0000000   0.0000 288.0000 15.55740824    15
CTC2_L_00509023-01
1 10022U 22136AF  26075.70047454  .00000000  00000+0  00000-0 0  9999
2 10022  97.4000 264.0000 0000000   0.0000 336.0000 15.55740824    13
CTC2_L_00509024-01
1 10023U 26244TR  26075.70047454  .00000000  00000+0  00000-0 0  9994
2 10023  97.4000 276.0000 0000000   0.0000  24.0000 15.55740824    11
CTC2_L_00509025-01
1 10024U 24456WX  26075.70047454  .00000000  00000+0  00000-0 0  9998
2 10024  97.4000 288.0000 0000000   0.0000  72.0000 15.55740824    18
CTC2_L_00509026-01
1 10025U 25614CF  26075.70047454  .00000000  00000+0  00000-0 0  9996
2 10025  97.4000 300.0000 0000000   0.0000 120.0000 15.55740824    18
CTC2_L_00509027-01
1 10026U 24570FV  26075.70047454  .00000000  00000+0  00000-0 0  9997
2 10026  97.4000 312.0000 0000000   0.0000 168.0000 15.55740824    14
CTC2_L_00509028-01
1 10027U 22534YB  26075.70047454  .00000000  00000+0  00000-0 0  9996
2 10027  97.4000 324.0000 0000000   0.0000 216.0000 15.55740824    12
CTC2_L_00509029-01
1 10028U 24428UO  26075.70047454  .00000000  00000+0  00000-0 0  9991
2 10028  97.4000 336.0000 0000000   0.0000 264.0000 15.55740824    19
CTC2_L_00509030-01
1 10029U 23588YD  26075.70047454  .00000000  00000+0  00000-0 0  9998
2 10029  97.4000 348.0000 0000000   0.0000 312.0000 15.55740824    17
